start=new Date('2021-09-16T00:00:00.000Z').valueOf();
sats=[{"FILE":"3116597","INCLINATION":"53.0547","NORAD_CAT_ID":"46543","TIME_SYSTEM":"UTC","MEAN_MOTION":"15.06390215","EPOCH":"2021-09-15T14:05:55.812192","REF_FRAME":"TEME","GP_ID":"184788991","MEAN_ANOMALY":"240.3254","PERIAPSIS":"546.587","EPHEMERIS_TYPE":"0","MEAN_ELEMENT_THEORY":"SGP4","MEAN_MOTION_DOT":"0.00001223","BSTAR":"0.00010100000000","ELEMENT_SET_NO":"999","ARG_OF_PERICENTER":"119.7830","TLE_LINE1":"1 46543U 20070M   21258.58745153  .00001223  00000-0  10100-3 0  9990","PERIOD":"95.593","COUNTRY_CODE":"US","APOAPSIS":"547.900","RCS_SIZE":"LARGE","LAUNCH_DATE":"2020-10-06","RA_OF_ASC_NODE":"321.3681","ECCENTRICITY":"0.00009480","OBJECT_NAME":"STARLINK-1693","CLASSIFICATION_TYPE":"U","TLE_LINE2":"2 46543  53.0547 321.3681 0000948 119.7830 240.3254 15.06390215 52900","CENTER_NAME":"EARTH","SITE":"AFETR","SEMIMAJOR_AXIS":"6925.379","REV_AT_EPOCH":"5290","MEAN_MOTION_DDOT":"0.0000000000000","OBJECT_ID":"2020-070M","DECAY_DATE":null,"OBJECT_TYPE":"PAYLOAD"},{"MEAN_MOTION_DOT":"0.00000590","MEAN_ELEMENT_THEORY":"SGP4","EPHEMERIS_TYPE":"0","PERIAPSIS":"546.505","MEAN_ANOMALY":"260.8029","GP_ID":"184787742","REF_FRAME":"TEME","EPOCH":"2021-09-15T15:35:30.753600","TIME_SYSTEM":"UTC","NORAD_CAT_ID":"46544","MEAN_MOTION":"15.06390699","INCLINATION":"53.0545","FILE":"3116597","RCS_SIZE":"LARGE","APOAPSIS":"547.979","COUNTRY_CODE":"US","TLE_LINE1":"1 46544U 20070N   21258.64966150  .00000590  00000-0  58521-4 0  9996","PERIOD":"95.593","ARG_OF_PERICENTER":"99.3080","ELEMENT_SET_NO":"999","BSTAR":"0.00005852100000","SEMIMAJOR_AXIS":"6925.377","REV_AT_EPOCH":"5312","SITE":"AFETR","CENTER_NAME":"EARTH","TLE_LINE2":"2 46544  53.0545 306.0852 0001064  99.3080 260.8029 15.06390699 53127","OBJECT_NAME":"STARLINK-1694","CLASSIFICATION_TYPE":"U","ECCENTRICITY":"0.00010640","RA_OF_ASC_NODE":"306.0852","LAUNCH_DATE":"2020-10-06","OBJECT_TYPE":"PAYLOAD","DECAY_DATE":null,"OBJECT_ID":"2020-070N","MEAN_MOTION_DDOT":"0.0000000000000"},{"APOAPSIS":"547.975","RCS_SIZE":"LARGE","ARG_OF_PERICENTER":"94.7107","ELEMENT_SET_NO":"999","BSTAR":"0.00009359800000","TLE_LINE1":"1 46545U 20070P   21258.88970858  .00001113  00000-0  93598-4 0  9998","PERIOD":"95.593","COUNTRY_CODE":"US","EPHEMERIS_TYPE":"0","PERIAPSIS":"546.537","MEAN_ANOMALY":"265.4001","GP_ID":"184787491","REF_FRAME":"TEME","MEAN_MOTION_DOT":"0.00001113","MEAN_ELEMENT_THEORY":"SGP4","MEAN_MOTION":"15.06386245","NORAD_CAT_ID":"46545","TIME_SYSTEM":"UTC","INCLINATION":"53.0554","FILE":"3116597","EPOCH":"2021-09-15T21:21:10.821312","OBJECT_TYPE":"PAYLOAD","OBJECT_ID":"2020-070P","DECAY_DATE":null,"MEAN_MOTION_DDOT":"0.0000000000000","SITE":"AFETR","CENTER_NAME":"EARTH","TLE_LINE2":"2 46545  53.0554 320.0189 0001038  94.7107 265.4001 15.06386245 52949","SEMIMAJOR_AXIS":"6925.391","REV_AT_EPOCH":"5294","ECCENTRICITY":"0.00010380","LAUNCH_DATE":"2020-10-06","RA_OF_ASC_NODE":"320.0189","OBJECT_NAME":"STARLINK-1696","CLASSIFICATION_TYPE":"U"},{"INCLINATION":"53.0546","MEAN_MOTION":"15.06394630","NORAD_CAT_ID":"46546","TIME_SYSTEM":"UTC","FILE":"3116597","EPOCH":"2021-09-15T20:59:55.972032","PERIAPSIS":"546.729","EPHEMERIS_TYPE":"0","GP_ID":"184788243","MEAN_ANOMALY":"244.8820","REF_FRAME":"TEME","MEAN_ELEMENT_THEORY":"SGP4","MEAN_MOTION_DOT":"-0.00000371","ARG_OF_PERICENTER":"115.2244","BSTAR":"-0.00000606520000","ELEMENT_SET_NO":"999","TLE_LINE1":"1 46546U 20070Q   21258.87495338 -.00000371  00000-0 -60652-5 0  9996","COUNTRY_CODE":"US","PERIOD":"95.592","APOAPSIS":"547.731","RCS_SIZE":"LARGE","ECCENTRICITY":"0.00007240","RA_OF_ASC_NODE":"320.0777","LAUNCH_DATE":"2020-10-06","OBJECT_NAME":"STARLINK-1697","CLASSIFICATION_TYPE":"U","CENTER_NAME":"EARTH","SITE":"AFETR","TLE_LINE2":"2 46546  53.0546 320.0777 0000724 115.2244 244.8820 15.06394630 52943","REV_AT_EPOCH":"5294","SEMIMAJOR_AXIS":"6925.365","OBJECT_ID":"2020-070Q","DECAY_DATE":null,"MEAN_MOTION_DDOT":"0.0000000000000","OBJECT_TYPE":"PAYLOAD"},{"REF_FRAME":"TEME","GP_ID":"184788491","MEAN_ANOMALY":"261.2980","PERIAPSIS":"546.491","EPHEMERIS_TYPE":"0","MEAN_ELEMENT_THEORY":"SGP4","MEAN_MOTION_DOT":"-0.00000887","FILE":"3116597","INCLINATION":"53.0546","NORAD_CAT_ID":"46547","TIME_SYSTEM":"UTC","MEAN_MOTION":"15.06387823","EPOCH":"2021-09-15T21:42:24.565536","APOAPSIS":"548.011","RCS_SIZE":"LARGE","BSTAR":"-0.00004067900000","ELEMENT_SET_NO":"999","ARG_OF_PERICENTER":"98.8133","PERIOD":"95.593","TLE_LINE1":"1 46547U 20070R   21258.90445099 -.00000887  00000-0 -40679-4 0  9998","COUNTRY_CODE":"US","TLE_LINE2":"2 46547  53.0546 319.9541 0001097  98.8133 261.2980 15.06387823 52954","CENTER_NAME":"EARTH","SITE":"AFETR","REV_AT_EPOCH":"5295","SEMIMAJOR_AXIS":"6925.386","LAUNCH_DATE":"2020-10-06","RA_OF_ASC_NODE":"319.9541","ECCENTRICITY":"0.00010970","OBJECT_NAME":"STARLINK-1698","CLASSIFICATION_TYPE":"U","OBJECT_TYPE":"PAYLOAD","MEAN_MOTION_DDOT":"0.0000000000000","DECAY_DATE":null,"OBJECT_ID":"2020-070R"},{"MEAN_MOTION_DOT":"0.00000264","MEAN_ELEMENT_THEORY":"SGP4","EPHEMERIS_TYPE":"0","PERIAPSIS":"546.461","REF_FRAME":"TEME","GP_ID":"184787242","MEAN_ANOMALY":"259.2444","EPOCH":"2021-09-15T15:36:09.618048","NORAD_CAT_ID":"46548","MEAN_MOTION":"15.06388860","TIME_SYSTEM":"UTC","INCLINATION":"53.0567","FILE":"3116597","RCS_SIZE":"LARGE","APOAPSIS":"548.034","COUNTRY_CODE":"US","TLE_LINE1":"1 46548U 20070S   21258.65011132  .00000264  00000-0  36651-4 0  9990","PERIOD":"95.593","ARG_OF_PERICENTER":"100.8673","ELEMENT_SET_NO":"999","BSTAR":"0.00003665100000","SEMIMAJOR_AXIS":"6925.383","REV_AT_EPOCH":"5291","SITE":"AFETR","CENTER_NAME":"EARTH","TLE_LINE2":"2 46548  53.0567 321.0960 0001136 100.8673 259.2444 15.06388860 52914","OBJECT_NAME":"STARLINK-1699","CLASSIFICATION_TYPE":"U","ECCENTRICITY":"0.00011360","LAUNCH_DATE":"2020-10-06","RA_OF_ASC_NODE":"321.0960","OBJECT_TYPE":"PAYLOAD","DECAY_DATE":null,"OBJECT_ID":"2020-070S","MEAN_MOTION_DDOT":"0.0000000000000"},{"ECCENTRICITY":"0.00007870","LAUNCH_DATE":"2020-10-06","RA_OF_ASC_NODE":"320.0740","CLASSIFICATION_TYPE":"U","OBJECT_NAME":"STARLINK-1700","CENTER_NAME":"EARTH","SITE":"AFETR","TLE_LINE2":"2 46549  53.0536 320.0740 0000787 107.9840 252.1234 15.06385885 52947","SEMIMAJOR_AXIS":"6925.392","REV_AT_EPOCH":"5294","DECAY_DATE":null,"OBJECT_ID":"2020-070T","MEAN_MOTION_DDOT":"0.0000000000000","OBJECT_TYPE":"PAYLOAD","INCLINATION":"53.0536","NORAD_CAT_ID":"46549","TIME_SYSTEM":"UTC","MEAN_MOTION":"15.06385885","FILE":"3116597","EPOCH":"2021-09-15T21:03:53.713728","PERIAPSIS":"546.712","EPHEMERIS_TYPE":"0","GP_ID":"184787992","REF_FRAME":"TEME","MEAN_ANOMALY":"252.1234","MEAN_ELEMENT_THEORY":"SGP4","MEAN_MOTION_DOT":"0.00001591","ARG_OF_PERICENTER":"107.9840","BSTAR":"0.00012570000000","ELEMENT_SET_NO":"999","TLE_LINE1":"1 46549U 20070T   21258.87770502  .00001591  00000-0  12570-3 0  9995","PERIOD":"95.593","COUNTRY_CODE":"US","APOAPSIS":"547.802","RCS_SIZE":"LARGE"},{"ARG_OF_PERICENTER":"152.6314","BSTAR":"-0.00000167590000","ELEMENT_SET_NO":"999","PERIOD":"95.592","TLE_LINE1":"1 46550U 20070U   21258.86389330 -.00000306  00000-0 -16759-5 0  9991","COUNTRY_CODE":"US","APOAPSIS":"547.959","RCS_SIZE":"LARGE","INCLINATION":"53.0551","NORAD_CAT_ID":"46550","MEAN_MOTION":"15.06396906","TIME_SYSTEM":"UTC","FILE":"3116597","EPOCH":"2021-09-15T20:44:00.381120","PERIAPSIS":"546.487","EPHEMERIS_TYPE":"0","REF_FRAME":"TEME","GP_ID":"184788744","MEAN_ANOMALY":"207.4731","MEAN_ELEMENT_THEORY":"SGP4","MEAN_MOTION_DOT":"-0.00000306","DECAY_DATE":null,"OBJECT_ID":"2020-070U","MEAN_MOTION_DDOT":"0.0000000000000","OBJECT_TYPE":"PAYLOAD","ECCENTRICITY":"0.00010630","LAUNCH_DATE":"2020-10-06","RA_OF_ASC_NODE":"320.1306","OBJECT_NAME":"STARLINK-1701","CLASSIFICATION_TYPE":"U","CENTER_NAME":"EARTH","SITE":"AFETR","TLE_LINE2":"2 46550  53.0551 320.1306 0001063 152.6314 207.4731 15.06396906 52947","SEMIMAJOR_AXIS":"6925.358","REV_AT_EPOCH":"5294"},{"EPOCH":"2021-09-15T19:44:58.084800","INCLINATION":"53.0541","MEAN_MOTION":"15.06392987","NORAD_CAT_ID":"46552","TIME_SYSTEM":"UTC","FILE":"3116597","MEAN_ELEMENT_THEORY":"SGP4","MEAN_MOTION_DOT":"-0.00000576","PERIAPSIS":"546.476","EPHEMERIS_TYPE":"0","MEAN_ANOMALY":"267.9879","GP_ID":"184788992","REF_FRAME":"TEME","TLE_LINE1":"1 46552U 20070W   21258.82289450 -.00000576  00000-0 -19771-4 0  9996","PERIOD":"95.593","COUNTRY_CODE":"US","ARG_OF_PERICENTER":"92.1235","BSTAR":"-0.00001977100000","ELEMENT_SET_NO":"999","RCS_SIZE":"LARGE","APOAPSIS":"547.994","OBJECT_NAME":"STARLINK-1649","CLASSIFICATION_TYPE":"U","ECCENTRICITY":"0.00010960","LAUNCH_DATE":"2020-10-06","RA_OF_ASC_NODE":"305.3210","SEMIMAJOR_AXIS":"6925.370","REV_AT_EPOCH":"5315","CENTER_NAME":"EARTH","SITE":"AFETR","TLE_LINE2":"2 46552  53.0541 305.3210 0001096  92.1235 267.9879 15.06392987 53156","OBJECT_ID":"2020-070W","DECAY_DATE":null,"MEAN_MOTION_DDOT":"0.0000000000000","OBJECT_TYPE":"PAYLOAD"},{"INCLINATION":"53.0540","NORAD_CAT_ID":"46553","TIME_SYSTEM":"UTC","MEAN_MOTION":"15.06389562","FILE":"3116597","EPOCH":"2021-09-15T18:49:51.847968","PERIAPSIS":"546.733","EPHEMERIS_TYPE":"0","REF_FRAME":"TEME","GP_ID":"184787743","MEAN_ANOMALY":"266.5593","MEAN_ELEMENT_THEORY":"SGP4","MEAN_MOTION_DOT":"-0.00000724","ARG_OF_PERICENTER":"93.5481","BSTAR":"-0.00002976200000","ELEMENT_SET_NO":"999","PERIOD":"95.593","TLE_LINE1":"1 46553U 20070X   21258.78462787 -.00000724  00000-0 -29762-4 0  9994","COUNTRY_CODE":"US","APOAPSIS":"547.758","RCS_SIZE":"LARGE","ECCENTRICITY":"0.00007400","LAUNCH_DATE":"2020-10-06","RA_OF_ASC_NODE":"290.4923","CLASSIFICATION_TYPE":"U","OBJECT_NAME":"STARLINK-1664","CENTER_NAME":"EARTH","SITE":"AFETR","TLE_LINE2":"2 46553  53.0540 290.4923 0000740  93.5481 266.5593 15.06389562 53359","REV_AT_EPOCH":"5335","SEMIMAJOR_AXIS":"6925.381","DECAY_DATE":null,"OBJECT_ID":"2020-070X","MEAN_MOTION_DDOT":"0.0000000000000","OBJECT_TYPE":"PAYLOAD"}];
